[
    {
        "Altitude(m)": 604969.0892327967,
        "Argument of Periapsis(deg)": 0.0,
        "Eccentricity": 0.0,
        "Inclination(deg)": 60.0,
        "Latitude(deg)": -0.09274120426464295,
        "Longitude(deg)": -100.02247242577228,
        "Mean Anomaly(deg)": 0.0,
        "RAAN(deg)": 0.0,
        "Satellite Name": "Test1 0",
        "Satellite Number": 0,
        "Semi-Major Axis(m)": 6980739.136638005,
        "Time(s)": 0
    },
    {
        "Altitude(m)": 604900.0281663988,
        "Argument of Periapsis(deg)": 0.00010418945913296404,
        "Eccentricity": 0.0,
        "Inclination(deg)": 60.0,
        "Latitude(deg)": 0.4476846020307673,
        "Longitude(deg)": -99.75434922045278,
        "Mean Anomaly(deg)": 0.6201061454618302,
        "RAAN(deg)": -0.0004200491397426661,
        "Satellite Name": "Test1 0",
        "Satellite Number": 0,
        "Semi-Major Axis(m)": 6980739.136638005,
        "Time(s)": 10
    }
]